QIANFAN-41              
1 62242U 24232F   25244.62696285  .00000079  00000+0  10312-3 0  9995
2 62242  88.9946  51.5006 0015657 122.6872 237.5791 13.50968560 85461
QIANFAN-42              
1 62243U 24232G   25244.55984044  .00000303  00000+0  12484-3 0  9993
2 62243  88.9947  49.0248 0016978  63.1824 297.1102 14.24343159 86828
QIANFAN-43              
1 62244U 24232H   25244.54878112  .00000078  00000+0  10254-3 0  9993
2 62244  88.9950  51.5693 0017068 127.9789 232.2907 13.50965910 54062
QIANFAN-44              
1 62245U 24232J   25244.61049709  .00000085  00000+0  11230-3 0  9997
2 62245  88.9949  51.3753 0015351 124.7229 235.5370 13.50964663 85544
QIANFAN-45              
1 62246U 24232K   25244.57759294  .00000089  00000+0  11892-3 0  9998
2 62246  88.9952  51.5217 0015993 124.6499 235.6163 13.50968149 85461
QIANFAN-46              
1 62247U 24232L   25244.52820521  .00000078  00000+0  10222-3 0  9990
2 62247  88.9948  51.5999 0015966 129.7634 230.4926 13.50968843 85417
QIANFAN-47              
1 62248U 24232M   25244.53227048  .00000094  00000+0  12718-3 0  9997
2 62248  88.9944  51.5365 0016404 129.1057 231.1556 13.50962288 85449
QIANFAN-48              
1 62249U 24232N   25244.56934535  .00000106  00000+0  14498-3 0  9998
2 62249  88.9948  51.5306 0018606 131.9254 228.3487 13.50965595 85451
